STARLINK-5811           
1 55787U 23028AY  25299.90716928  .00000171  00000+0  22113-4 0  9997
2 55787  69.9997 181.8977 0002926 270.7647  89.3177 14.98331483146983
STARLINK-5804           
1 55788U 23028AZ  25299.96975978 -.00000447  00000+0 -29708-4 0  9991
2 55788  69.9998 181.7151 0002724 269.2563  90.8284 14.98328453146994
STARLINK-5815           
1 55789U 23028BA  25299.94471537 -.00000807  00000+0 -59822-4 0  9992
2 55789  69.9997 181.6269 0002751 267.5507  92.5337 14.98329019146999
STARLINK-5813           
1 55790U 23028BB  25299.94905119 -.00000527  00000+0 -36392-4 0  9998
2 55790  69.9996 181.6430 0002938 269.3028  90.7794 14.98329974146992
STARLINK-5807           
1 55791U 23028BC  25299.96140671  .00001040  00000+0  94921-4 0  9996
2 55791  69.9995 181.6864 0003070 270.2186  89.8621 14.98324316146990
STARLINK-5856           
1 55914U 23037A   25299.70388167 -.00000535  00000+0 -37022-4 0  9998
2 55914  69.9984 282.4307 0002798 267.1513  92.9326 14.98335499144104
STARLINK-5859           
1 55915U 23037B   25299.68718183 -.00000241  00000+0 -12405-4 0  9993
2 55915  69.9984 282.3721 0003058 270.2130  89.8679 14.98329394144107
STARLINK-5796           
1 55916U 23037C   25299.69971448  .00002628  00000+0  22797-3 0  9993
2 55916  69.9982 282.4157 0003160 263.5184  96.5615 14.98332193143417
STARLINK-5855           
1 55917U 23037D   25300.00002315  .00294217  35252-4  10195-2 0  9997
2 55917  69.9637 193.2214 0004622 220.8313  33.8328 15.89282923  5959
STARLINK-5867           
1 55918U 23037E   25299.36173335 -.00000125  00000+0 -27052-5 0  9991
2 55918  69.9985 283.2429 0002832 270.1914  89.8921 14.98334911143362
STARLINK-5871           
1 55919U 23037F   25299.68734665  .00000734  00000+0  69295-4 0  9994
2 55919  69.9982 282.3716 0003327 264.2326  95.8453 14.98331610143416
STARLINK-5862           
1 55920U 23037G   25299.95817403 -.00000016  00000+0  64628-5 0  9998
2 55920  69.9988 261.8336 0002870 268.9266  91.1564 14.98330019143942
STARLINK-5861           
1 55921U 23037H   25299.67048185  .00000219  00000+0  26171-4 0  9995
2 55921  69.9983 282.3129 0003117 270.1673  89.9129 14.98332281143415
STARLINK-5863           
1 55922U 23037J   25299.94169880  .00001335  00000+0  11963-3 0  9994
2 55922  70.0003 281.6540 0003072 269.9790  90.1017 14.98343833143456
STARLINK-5854           
1 55923U 23037K   25299.94587341 -.00000962  00000+0 -72812-4 0  9999
2 55923  69.9990 281.6697 0002901 268.1814  91.9013 14.98330816143452
STARLINK-5849           
1 55924U 23037L   25299.95402385 -.00002341  00000+0 -18849-3 0  9997
2 55924  69.9989 261.8174 0002653 273.4437  86.6418 14.98320566143940
