[{"OBJECT_NAME":"STARLINK-5811","OBJECT_ID":"2023-028AY","EPOCH":"2025-10-26T21:46:19.425792","MEAN_MOTION":14.98331483,"ECCENTRICITY":0.00029269,"INCLINATION":69.9997,"RA_OF_ASC_NODE":181.8977,"ARG_OF_PERICENTER":270.7647,"MEAN_ANOMALY":89.3177,"EPHEMERIS_TYPE":0,"CLASSIFICATION_TYPE":"U","NORAD_CAT_ID":55787,"ELEMENT_SET_NO":999,"REV_AT_EPOCH":14698,"BSTAR":2.2112719e-5,"MEAN_MOTION_DOT":1.71e-6,"MEAN_MOTION_DDOT":0},{"OBJECT_NAME":"STARLINK-5804","OBJECT_ID":"2023-028AZ","EPOCH":"2025-10-26T23:16:27.244992","MEAN_MOTION":14.98328453,"ECCENTRICITY":0.00027247,"INCLINATION":69.9998,"RA_OF_ASC_NODE":181.7151,"ARG_OF_PERICENTER":269.2563,"MEAN_ANOMALY":90.8284,"EPHEMERIS_TYPE":0,"CLASSIFICATION_TYPE":"U","NORAD_CAT_ID":55788,"ELEMENT_SET_NO":999,"REV_AT_EPOCH":14699,"BSTAR":-2.9708087e-5,"MEAN_MOTION_DOT":-4.47e-6,"MEAN_MOTION_DDOT":0},{"OBJECT_NAME":"STARLINK-5815","OBJECT_ID":"2023-028BA","EPOCH":"2025-10-26T22:40:23.407968","MEAN_MOTION":14.98329019,"ECCENTRICITY":0.00027514,"INCLINATION":69.9997,"RA_OF_ASC_NODE":181.6269,"ARG_OF_PERICENTER":267.5507,"MEAN_ANOMALY":92.5337,"EPHEMERIS_TYPE":0,"CLASSIFICATION_TYPE":"U","NORAD_CAT_ID":55789,"ELEMENT_SET_NO":999,"REV_AT_EPOCH":14699,"BSTAR":-5.9822342e-5,"MEAN_MOTION_DOT":-8.07e-6,"MEAN_MOTION_DDOT":0},{"OBJECT_NAME":"STARLINK-5813","OBJECT_ID":"2023-028BB","EPOCH":"2025-10-26T22:46:38.022816","MEAN_MOTION":14.98329974,"ECCENTRICITY":0.00029384,"INCLINATION":69.9996,"RA_OF_ASC_NODE":181.643,"ARG_OF_PERICENTER":269.3028,"MEAN_ANOMALY":90.7794,"EPHEMERIS_TYPE":0,"CLASSIFICATION_TYPE":"U","NORAD_CAT_ID":55790,"ELEMENT_SET_NO":999,"REV_AT_EPOCH":14699,"BSTAR":-3.6391621e-5,"MEAN_MOTION_DOT":-5.27e-6,"MEAN_MOTION_DDOT":0},{"OBJECT_NAME":"STARLINK-5807","OBJECT_ID":"2023-028BC","EPOCH":"2025-10-26T23:04:25.539744","MEAN_MOTION":14.98324316,"ECCENTRICITY":0.000307,"INCLINATION":69.9995,"RA_OF_ASC_NODE":181.6864,"ARG_OF_PERICENTER":270.2186,"MEAN_ANOMALY":89.8621,"EPHEMERIS_TYPE":0,"CLASSIFICATION_TYPE":"U","NORAD_CAT_ID":55791,"ELEMENT_SET_NO":999,"REV_AT_EPOCH":14699,"BSTAR":9.4921134e-5,"MEAN_MOTION_DOT":1.04e-5,"MEAN_MOTION_DDOT":0},{"OBJECT_NAME":"STARLINK-5856","OBJECT_ID":"2023-037A","EPOCH":"2025-10-26T16:53:35.376288","MEAN_MOTION":14.98335499,"ECCENTRICITY":0.00027981,"INCLINATION":69.9984,"RA_OF_ASC_NODE":282.4307,"ARG_OF_PERICENTER":267.1513,"MEAN_ANOMALY":92.9326,"EPHEMERIS_TYPE":0,"CLASSIFICATION_TYPE":"U","NORAD_CAT_ID":55914,"ELEMENT_SET_NO":999,"REV_AT_EPOCH":14410,"BSTAR":-3.7022333e-5,"MEAN_MOTION_DOT":-5.35e-6,"MEAN_MOTION_DDOT":0},{"OBJECT_NAME":"STARLINK-5859","OBJECT_ID":"2023-037B","EPOCH":"2025-10-26T16:29:32.510112","MEAN_MOTION":14.98329394,"ECCENTRICITY":0.00030589,"INCLINATION":69.9984,"RA_OF_ASC_NODE":282.3721,"ARG_OF_PERICENTER":270.213,"MEAN_ANOMALY":89.8679,"EPHEMERIS_TYPE":0,"CLASSIFICATION_TYPE":"U","NORAD_CAT_ID":55915,"ELEMENT_SET_NO":999,"REV_AT_EPOCH":14410,"BSTAR":-1.2404943e-5,"MEAN_MOTION_DOT":-2.41e-6,"MEAN_MOTION_DDOT":0},{"OBJECT_NAME":"STARLINK-5796","OBJECT_ID":"2023-037C","EPOCH":"2025-10-26T16:47:35.331072","MEAN_MOTION":14.98332193,"ECCENTRICITY":0.000316,"INCLINATION":69.9982,"RA_OF_ASC_NODE":282.4157,"ARG_OF_PERICENTER":263.5184,"MEAN_ANOMALY":96.5615,"EPHEMERIS_TYPE":0,"CLASSIFICATION_TYPE":"U","NORAD_CAT_ID":55916,"ELEMENT_SET_NO":999,"REV_AT_EPOCH":14341,"BSTAR":0.00022797415,"MEAN_MOTION_DOT":2.628e-5,"MEAN_MOTION_DDOT":0},{"OBJECT_NAME":"STARLINK-5855","OBJECT_ID":"2023-037D","EPOCH":"2025-10-27T00:00:02.000160","MEAN_MOTION":15.89282923,"ECCENTRICITY":0.00046228,"INCLINATION":69.9637,"RA_OF_ASC_NODE":193.2214,"ARG_OF_PERICENTER":220.8313,"MEAN_ANOMALY":33.8328,"EPHEMERIS_TYPE":0,"CLASSIFICATION_TYPE":"U","NORAD_CAT_ID":55917,"ELEMENT_SET_NO":999,"REV_AT_EPOCH":595,"BSTAR":0.0010195388,"MEAN_MOTION_DOT":0.00294217,"MEAN_MOTION_DDOT":3.5251789e-5},{"OBJECT_NAME":"STARLINK-5867","OBJECT_ID":"2023-037E","EPOCH":"2025-10-26T08:40:53.761440","MEAN_MOTION":14.98334911,"ECCENTRICITY":0.00028327,"INCLINATION":69.9985,"RA_OF_ASC_NODE":283.2429,"ARG_OF_PERICENTER":270.1914,"MEAN_ANOMALY":89.8921,"EPHEMERIS_TYPE":0,"CLASSIFICATION_TYPE":"U","NORAD_CAT_ID":55918,"ELEMENT_SET_NO":999,"REV_AT_EPOCH":14336,"BSTAR":-2.705224e-6,"MEAN_MOTION_DOT":-1.25e-6,"MEAN_MOTION_DDOT":0},{"OBJECT_NAME":"STARLINK-5871","OBJECT_ID":"2023-037F","EPOCH":"2025-10-26T16:29:46.750560","MEAN_MOTION":14.9833161,"ECCENTRICITY":0.00033276,"INCLINATION":69.9982,"RA_OF_ASC_NODE":282.3716,"ARG_OF_PERICENTER":264.2326,"MEAN_ANOMALY":95.8453,"EPHEMERIS_TYPE":0,"CLASSIFICATION_TYPE":"U","NORAD_CAT_ID":55919,"ELEMENT_SET_NO":999,"REV_AT_EPOCH":14341,"BSTAR":6.9294609e-5,"MEAN_MOTION_DOT":7.34e-6,"MEAN_MOTION_DDOT":0},{"OBJECT_NAME":"STARLINK-5862","OBJECT_ID":"2023-037G","EPOCH":"2025-10-26T22:59:46.236192","MEAN_MOTION":14.98330019,"ECCENTRICITY":0.00028707,"INCLINATION":69.9988,"RA_OF_ASC_NODE":261.8336,"ARG_OF_PERICENTER":268.9266,"MEAN_ANOMALY":91.1564,"EPHEMERIS_TYPE":0,"CLASSIFICATION_TYPE":"U","NORAD_CAT_ID":55920,"ELEMENT_SET_NO":999,"REV_AT_EPOCH":14394,"BSTAR":6.462783e-6,"MEAN_MOTION_DOT":-1.6e-7,"MEAN_MOTION_DDOT":0},{"OBJECT_NAME":"STARLINK-5861","OBJECT_ID":"2023-037H","EPOCH":"2025-10-26T16:05:29.631840","MEAN_MOTION":14.98332281,"ECCENTRICITY":0.0003117,"INCLINATION":69.9983,"RA_OF_ASC_NODE":282.3129,"ARG_OF_PERICENTER":270.1673,"MEAN_ANOMALY":89.9129,"EPHEMERIS_TYPE":0,"CLASSIFICATION_TYPE":"U","NORAD_CAT_ID":55921,"ELEMENT_SET_NO":999,"REV_AT_EPOCH":14341,"BSTAR":2.6170716e-5,"MEAN_MOTION_DOT":2.19e-6,"MEAN_MOTION_DDOT":0},{"OBJECT_NAME":"STARLINK-5863","OBJECT_ID":"2023-037J","EPOCH":"2025-10-26T22:36:02.776320","MEAN_MOTION":14.98343833,"ECCENTRICITY":0.00030727,"INCLINATION":70.0003,"RA_OF_ASC_NODE":281.654,"ARG_OF_PERICENTER":269.979,"MEAN_ANOMALY":90.1017,"EPHEMERIS_TYPE":0,"CLASSIFICATION_TYPE":"U","NORAD_CAT_ID":55922,"ELEMENT_SET_NO":999,"REV_AT_EPOCH":14345,"BSTAR":0.00011963412,"MEAN_MOTION_DOT":1.335e-5,"MEAN_MOTION_DDOT":0},{"OBJECT_NAME":"STARLINK-5854","OBJECT_ID":"2023-037K","EPOCH":"2025-10-26T22:42:03.462624","MEAN_MOTION":14.98330816,"ECCENTRICITY":0.00029013,"INCLINATION":69.999,"RA_OF_ASC_NODE":281.6697,"ARG_OF_PERICENTER":268.1814,"MEAN_ANOMALY":91.9013,"EPHEMERIS_TYPE":0,"CLASSIFICATION_TYPE":"U","NORAD_CAT_ID":55923,"ELEMENT_SET_NO":999,"REV_AT_EPOCH":14345,"BSTAR":-7.2812225e-5,"MEAN_MOTION_DOT":-9.62e-6,"MEAN_MOTION_DDOT":0},{"OBJECT_NAME":"STARLINK-5849","OBJECT_ID":"2023-037L","EPOCH":"2025-10-26T22:53:47.660640","MEAN_MOTION":14.98320566,"ECCENTRICITY":0.00026537,"INCLINATION":69.9989,"RA_OF_ASC_NODE":261.8174,"ARG_OF_PERICENTER":273.4437,"MEAN_ANOMALY":86.6418,"EPHEMERIS_TYPE":0,"CLASSIFICATION_TYPE":"U","NORAD_CAT_ID":55924,"ELEMENT_SET_NO":999,"REV_AT_EPOCH":14394,"BSTAR":-0.00018848985,"MEAN_MOTION_DOT":-2.341e-5,"MEAN_MOTION_DDOT":0}]
